IRIDIUM 119             
1 42959U 17061E   26008.63586483  .00000024  00000+0  15683-5 0  9996
2 42959  86.3961  91.9744 0002030 104.6183 255.5238 14.34217580431942
IRIDIUM 107             
1 42960U 17061F   26008.51535615  .00000240  00000+0  78739-4 0  9996
2 42960  86.3962  92.0453 0002523  99.0043 261.1438 14.34217209431935
IRIDIUM 132             
1 42961U 17061G   26008.59146706  .00000114  00000+0  33695-4 0  9996
2 42961  86.3961  91.9941 0002223  97.9218 262.2230 14.34217678431946
IRIDIUM 136             
1 42962U 17061H   26008.48364292  .00000148  00000+0  45781-4 0  9993
2 42962  86.3963  92.0451 0002157  99.6174 260.5265 14.34217884431941
IRIDIUM 139             
1 42963U 17061J   26008.28068032  .00000040  00000+0  73475-5 0  9998
2 42963  86.3964  92.1898 0002327  97.9297 262.2163 14.34216622431928
IRIDIUM 125             
1 42964U 17061K   26008.47729561  .00000369  00000+0  12458-3 0  9997
2 42964  86.3965  92.1652 0002453 107.6108 252.5356 14.34216094431961
IRIDIUM 135             
1 43070U 17083A   26009.14911007  .00000188  00000+0  60104-4 0  9994
2 43070  86.3950  28.4800 0002149  90.2440 269.9002 14.34217287421356
IRIDIUM 138             
1 43071U 17083B   26009.10471256  .00000038  00000+0  63738-5 0  9999
2 43071  86.3966  28.1696 0002084 101.5997 258.5433 14.34217774421336
